{"type": "FeatureCollection", "features": [ {"type": "Feature", "properties": {"norad_id": 32384, "name": "GPS BIIRM-5 (PRN 29)", "group": "gps-ops", "lat": -15.125058201721147, "lon": 112.82490794367862, "alt_km": 20113.653103713776, "timestamp": "2025-12-03T08:58:46.254617+00:00", "meta": {"OBJECT_NAME": "GPS BIIRM-5 (PRN 29)", "OBJECT_ID": "2007-062A", "EPOCH": "2025-12-02T20:24:02.738016", "MEAN_MOTION": 2.00576658, "ECCENTRICITY": 0.0032212, "INCLINATION": 55.191, "RA_OF_ASC_NODE": 282.0426, "ARG_OF_PERICENTER": 162.849, "MEAN_ANOMALY": 16.9412, "EPHEMERIS_TYPE": 0, "CLASSIFICATION_TYPE": "U", "NORAD_CAT_ID": 32384, "ELEMENT_SET_NO": 999, "REV_AT_EPOCH": 13157, "BSTAR": 0, "MEAN_MOTION_DOT": -4.3e-07, "MEAN_MOTION_DDOT": 0}, "tle": {"line1": "1 32384U 07062A   25336.85003169 -.00000043  00000+0  00000+0 0  9992", "line2": "2 32384  55.1910 282.0426 0032212 162.8490  16.9412  2.00576658131576"}}, "geometry": {"type": "Point", "coordinates": [112.82490794367862, -15.125058201721147]}}, {"type": "Feature", "properties": {"norad_id": 32711, "name": "GPS BIIRM-6 (PRN 07)", "group": "gps-ops", "lat": 44.192514716635955, "lon": -66.27952971744047, "alt_km": 20468.459878708665, "timestamp": "2025-12-03T08:58:46.254629+00:00", "meta": {"OBJECT_NAME": "GPS BIIRM-6 (PRN 07)", "OBJECT_ID": "2008-012A", "EPOCH": "2025-12-02T16:51:27.111168", "MEAN_MOTION": 2.00565045, "ECCENTRICITY": 0.0202061, "INCLINATION": 54.4758, "RA_OF_ASC_NODE": 157.7736, "ARG_OF_PERICENTER": 244.8404, "MEAN_ANOMALY": 113.092, "EPHEMERIS_TYPE": 0, "CLASSIFICATION_TYPE": "U", "NORAD_CAT_ID": 32711, "ELEMENT_SET_NO": 999, "REV_AT_EPOCH": 12981, "BSTAR": 0, "MEAN_MOTION_DOT": 1.14e-06, "MEAN_MOTION_DDOT": 0}, "tle": {"line1": "1 32711U 08012A   25336.70239712  .00000114  00000+0  00000+0 0  9999", "line2": "2 32711  54.4758 157.7736 0202061 244.8404 113.0920  2.00565045129816"}}, "geometry": {"type": "Point", "coordinates": [-66.27952971744047, 44.192514716635955]}}, {"type": "Feature", "properties": {"norad_id": 35752, "name": "GPS BIIRM-8 (PRN 05)", "group": "gps-ops", "lat": 29.555000879166037, "lon": -167.2318825056948, "alt_km": 20111.77391581887, "timestamp": "2025-12-03T08:58:46.254641+00:00", "meta": {"OBJECT_NAME": "GPS BIIRM-8 (PRN 05)", "OBJECT_ID": "2009-043A", "EPOCH": "2025-12-01T04:42:32.815296", "MEAN_MOTION": 2.00566259, "ECCENTRICITY": 0.00521242, "INCLINATION": 56.0822, "RA_OF_ASC_NODE": 35.2386, "ARG_OF_PERICENTER": 82.0997, "MEAN_ANOMALY": 288.3285, "EPHEMERIS_TYPE": 0, "CLASSIFICATION_TYPE": "U", "NORAD_CAT_ID": 35752, "ELEMENT_SET_NO": 999, "REV_AT_EPOCH": 11939, "BSTAR": 0, "MEAN_MOTION_DOT": -6.6e-07, "MEAN_MOTION_DDOT": 0}, "tle": {"line1": "1 35752U 09043A   25335.19621314 -.00000066  00000+0  00000+0 0  9994", "line2": "2 35752  56.0822  35.2386 0052124  82.0997 288.3285  2.00566259119397"}}, "geometry": {"type": "Point", "coordinates": [-167.2318825056948, 29.555000879166037]}}, {"type": "Feature", "properties": {"norad_id": 36585, "name": "GPS BIIF-1  (PRN 25)", "group": "gps-ops", "lat": -53.40307651339294, "lon": 111.7546179710841, "alt_km": 20508.986006204028, "timestamp": "2025-12-03T08:58:46.254666+00:00", "meta": {"OBJECT_NAME": "GPS BIIF-1  (PRN 25)", "OBJECT_ID": "2010-022A", "EPOCH": "2025-12-02T06:20:52.766304", "MEAN_MOTION": 2.00552564, "ECCENTRICITY": 0.0125665, "INCLINATION": 54.3023, "RA_OF_ASC_NODE": 216.4964, "ARG_OF_PERICENTER": 64.9581, "MEAN_ANOMALY": 115.6293, "EPHEMERIS_TYPE": 0, "CLASSIFICATION_TYPE": "U", "NORAD_CAT_ID": 36585, "ELEMENT_SET_NO": 999, "REV_AT_EPOCH": 11364, "BSTAR": 0, "MEAN_MOTION_DOT": 6.7e-07, "MEAN_MOTION_DDOT": 0}, "tle": {"line1": "1 36585U 10022A   25336.26449961  .00000067  00000+0  00000+0 0  9993", "line2": "2 36585  54.3023 216.4964 0125665  64.9581 115.6293  2.00552564113647"}}, "geometry": {"type": "Point", "coordinates": [111.7546179710841, -53.40307651339294]}}, {"type": "Feature", "properties": {"norad_id": 38833, "name": "GPS BIIF-3  (PRN 24)", "group": "gps-ops", "lat": -2.461666505350625, "lon": 149.79275836723144, "alt_km": 19993.32799151659, "timestamp": "2025-12-03T08:58:46.254681+00:00", "meta": {"OBJECT_NAME": "GPS BIIF-3  (PRN 24)", "OBJECT_ID": "2012-053A", "EPOCH": "2025-12-01T21:10:58.228896", "MEAN_MOTION": 2.00564835, "ECCENTRICITY": 0.01754817, "INCLINATION": 53.5559, "RA_OF_ASC_NODE": 151.6834, "ARG_OF_PERICENTER": 63.8436, "MEAN_ANOMALY": 297.9871, "EPHEMERIS_TYPE": 0, "CLASSIFICATION_TYPE": "U", "NORAD_CAT_ID": 38833, "ELEMENT_SET_NO": 999, "REV_AT_EPOCH": 9548, "BSTAR": 0, "MEAN_MOTION_DOT": 1.16e-06, "MEAN_MOTION_DDOT": 0}, "tle": {"line1": "1 38833U 12053A   25335.88261839  .00000116  00000+0  00000+0 0  9995", "line2": "2 38833  53.5559 151.6834 0175481  63.8436 297.9871  2.00564835 95485"}}, "geometry": {"type": "Point", "coordinates": [149.79275836723144, -2.461666505350625]}}, {"type": "Feature", "properties": {"norad_id": 39166, "name": "GPS BIIF-4  (PRN 27)", "group": "gps-ops", "lat": 53.96479071447906, "lon": 19.995744930886605, "alt_km": 19934.713541373963, "timestamp": "2025-12-03T08:58:46.254694+00:00", "meta": {"OBJECT_NAME": "GPS BIIF-4  (PRN 27)", "OBJECT_ID": "2013-023A", "EPOCH": "2025-12-02T05:52:52.839264", "MEAN_MOTION": 2.00565054, "ECCENTRICITY": 0.0137245, "INCLINATION": 54.6613, "RA_OF_ASC_NODE": 276.9949, "ARG_OF_PERICENTER": 48.5008, "MEAN_ANOMALY": 312.6646, "EPHEMERIS_TYPE": 0, "CLASSIFICATION_TYPE": "U", "NORAD_CAT_ID": 39166, "ELEMENT_SET_NO": 999, "REV_AT_EPOCH": 9193, "BSTAR": 0, "MEAN_MOTION_DOT": -3.9e-07, "MEAN_MOTION_DDOT": 0}, "tle": {"line1": "1 39166U 13023A   25336.24505601 -.00000039  00000+0  00000+0 0  9997", "line2": "2 39166  54.6613 276.9949 0137245  48.5008 312.6646  2.00565054 91932"}}, "geometry": {"type": "Point", "coordinates": [19.995744930886605, 53.96479071447906]}}, {"type": "Feature", "properties": {"norad_id": 39533, "name": "GPS BIIF-5  (PRN 30)", "group": "gps-ops", "lat": 52.87160329649589, "lon": -99.58956223205698, "alt_km": 20304.848366974715, "timestamp": "2025-12-03T08:58:46.254706+00:00", "meta": {"OBJECT_NAME": "GPS BIIF-5  (PRN 30)", "OBJECT_ID": "2014-008A", "EPOCH": "2025-12-02T17:43:01.654176", "MEAN_MOTION": 2.00573776, "ECCENTRICITY": 0.0078962, "INCLINATION": 53.6297, "RA_OF_ASC_NODE": 157.3327, "ARG_OF_PERICENTER": 226.3697, "MEAN_ANOMALY": 133.0141, "EPHEMERIS_TYPE": 0, "CLASSIFICATION_TYPE": "U", "NORAD_CAT_ID": 39533, "ELEMENT_SET_NO": 999, "REV_AT_EPOCH": 8574, "BSTAR": 0, "MEAN_MOTION_DOT": 1.12e-06, "MEAN_MOTION_DDOT": 0}, "tle": {"line1": "1 39533U 14008A   25336.73821359  .00000112  00000+0  00000+0 0  9995", "line2": "2 39533  53.6297 157.3327 0078962 226.3697 133.0141  2.00573776 85746"}}, "geometry": {"type": "Point", "coordinates": [-99.58956223205698, 52.87160329649589]}}, {"type": "Feature", "properties": {"norad_id": 39741, "name": "GPS BIIF-6  (PRN 06)", "group": "gps-ops", "lat": -53.548457255457436, "lon": -137.50551604881412, "alt_km": 20141.775337698095, "timestamp": "2025-12-03T08:58:46.254718+00:00", "meta": {"OBJECT_NAME": "GPS BIIF-6  (PRN 06)", "OBJECT_ID": "2014-026A", "EPOCH": "2025-12-02T00:33:52.454592", "MEAN_MOTION": 2.0056192, "ECCENTRICITY": 0.00388896, "INCLINATION": 56.5877, "RA_OF_ASC_NODE": 339.1935, "ARG_OF_PERICENTER": 318.1232, "MEAN_ANOMALY": 41.6099, "EPHEMERIS_TYPE": 0, "CLASSIFICATION_TYPE": "U", "NORAD_CAT_ID": 39741, "ELEMENT_SET_NO": 999, "REV_AT_EPOCH": 8458, "BSTAR": 0, "MEAN_MOTION_DOT": -5.7e-07, "MEAN_MOTION_DDOT": 0}, "tle": {"line1": "1 39741U 14026A   25336.02352378 -.00000057  00000+0  00000+0 0  9997", "line2": "2 39741  56.5877 339.1935 0038889 318.1232  41.6099  2.00561920 84582"}}, "geometry": {"type": "Point", "coordinates": [-137.50551604881412, -53.548457255457436]}}, {"type": "Feature", "properties": {"norad_id": 40105, "name": "GPS BIIF-7  (PRN 09)", "group": "gps-ops", "lat": -10.116240943811105, "lon": -76.62666175533688, "alt_km": 20156.68410400652, "timestamp": "2025-12-03T08:58:46.254730+00:00", "meta": {"OBJECT_NAME": "GPS BIIF-7  (PRN 09)", "OBJECT_ID": "2014-045A", "EPOCH": "2025-12-02T02:40:49.418112", "MEAN_MOTION": 2.00571797, "ECCENTRICITY": 0.0032935, "INCLINATION": 55.2223, "RA_OF_ASC_NODE": 96.323, "ARG_OF_PERICENTER": 119.6015, "MEAN_ANOMALY": 240.7039, "EPHEMERIS_TYPE": 0, "CLASSIFICATION_TYPE": "U", "NORAD_CAT_ID": 40105, "ELEMENT_SET_NO": 999, "REV_AT_EPOCH": 8212, "BSTAR": 0, "MEAN_MOTION_DOT": 7e-08, "MEAN_MOTION_DDOT": 0}, "tle": {"line1": "1 40105U 14045A   25336.11168308  .00000007  00000+0  00000+0 0  9996", "line2": "2 40105  55.2223  96.3230 0032935 119.6015 240.7039  2.00571797 82125"}}, "geometry": {"type": "Point", "coordinates": [-76.62666175533688, -10.116240943811105]}}, {"type": "Feature", "properties": {"norad_id": 40294, "name": "GPS BIIF-8  (PRN 03)", "group": "gps-ops", "lat": -55.44260150421249, "lon": -32.87554793690897, "alt_km": 20326.287812817758, "timestamp": "2025-12-03T08:58:46.254742+00:00", "meta": {"OBJECT_NAME": "GPS BIIF-8  (PRN 03)", "OBJECT_ID": "2014-068A", "EPOCH": "2025-12-02T11:42:10.324800", "MEAN_MOTION": 2.00564029, "ECCENTRICITY": 0.006082, "INCLINATION": 56.8498, "RA_OF_ASC_NODE": 38.5427, "ARG_OF_PERICENTER": 69.4176, "MEAN_ANOMALY": 291.2841, "EPHEMERIS_TYPE": 0, "CLASSIFICATION_TYPE": "U", "NORAD_CAT_ID": 40294, "ELEMENT_SET_NO": 999, "REV_AT_EPOCH": 8126, "BSTAR": 0, "MEAN_MOTION_DOT": -6.5e-07, "MEAN_MOTION_DDOT": 0}, "tle": {"line1": "1 40294U 14068A   25336.48761950 -.00000065  00000+0  00000+0 0  9997", "line2": "2 40294  56.8498  38.5427 0060820  69.4176 291.2841  2.00564029 81261"}}, "geometry": {"type": "Point", "coordinates": [-32.87554793690897, -55.44260150421249]}}]}